[{"OBJECT_NAME":"HAWK-11B","OBJECT_ID":"2024-247C","EPOCH":"2026-03-09T10:44:06.809856","MEAN_MOTION":15.2884707,"ECCENTRICITY":0.00046902,"INCLINATION":45.0161,"RA_OF_ASC_NODE":115.761,"ARG_OF_PERICENTER":333.0326,"MEAN_ANOMALY":27.0314,"EPHEMERIS_TYPE":0,"CLASSIFICATION_TYPE":"U","NORAD_CAT_ID":62379,"ELEMENT_SET_NO":999,"REV_AT_EPOCH":6773,"BSTAR":0.00032841927,"MEAN_MOTION_DOT":9.093e-5,"MEAN_MOTION_DDOT":0},{"OBJECT_NAME":"STARLINK-35481","OBJECT_ID":"2025-245P","EPOCH":"2026-03-09T20:52:44.180256","MEAN_MOTION":15.30198303,"ECCENTRICITY":0.0001015,"INCLINATION":53.1569,"RA_OF_ASC_NODE":283.0916,"ARG_OF_PERICENTER":73.3526,"MEAN_ANOMALY":286.7587,"EPHEMERIS_TYPE":0,"CLASSIFICATION_TYPE":"U","NORAD_CAT_ID":66247,"ELEMENT_SET_NO":999,"REV_AT_EPOCH":2128,"BSTAR":0.00059083511,"MEAN_MOTION_DOT":0.00017179,"MEAN_MOTION_DDOT":0}]
